RANDEV                  
1 52898U 22065E   24226.86094974  .00005017  00000+0  10352-2 0  9995
2 52898  98.1275   6.8102 0007602 340.5775  19.5135 14.60832917112974
SNUGLITE-II             
1 52899U 22065F   24226.92811479  .00005445  00000+0  11152-2 0  9994
2 52899  98.1268   6.9877 0007180 340.9956  19.0975 14.61138832112695
MIMAN                   
1 52900U 22065G   24226.90487977  .00003605  00000+0  76199-3 0  9996
2 52900  98.1299   6.3956 0007076 336.7138  23.3740 14.59900858112277
SLINGSHOT 1             
1 52947U 22074D   24227.03241859  .00228760  00000+0  96625-3 0  9996
2 52947  44.9815 127.3801 0010676 168.4127 191.7025 15.83968582119338
STARLINK-4362           
1 53043U 22077A   24226.96565248 -.00001099  00000+0 -81024-4 0  9993
2 53043  97.6567  46.9774 0003182  60.6380 299.5162 15.01246237114282
LARES-2                 
1 53105U 22080A   24220.50878152  .00000010  00000+0  00000+0 0  9991
2 53105  70.1383 178.0875 0004924 127.0762 233.0167  6.38965230 48307
GREENCUBE               
1 53106U 22080B   24220.17464831 -.00000003  00000+0  00000+0 0  9993
2 53106  70.1402 174.8068 0007673  95.8653 264.2881  6.42557506 48546
ROBUSTA-1F (MTCUBE 2)   
1 53109U 22080E   24226.21299902 -.00000003  00000+0  00000+0 0  9992
2 53109  70.1254 172.2951 0007755  75.5189 284.6331  6.42584271 48823
STARLINK-4410           
1 53204U 22084R   24227.15228628  .00027574  00000+0  21453-2 0  9992
2 53204  97.6552 287.1571 0000750 146.1670 213.9602 15.01219926113798
COSMOS 2558             
1 53323U 22089A   24227.67725666  .00042689  00000+0  12490-2 0  9995
2 53323  97.2438 324.0718 0005189 146.6759 213.4812 15.35116727114204
TECMS                   
1 53346U 22090A   24227.61262806  .00019491  00000+0  88219-3 0  9996
2 53346  97.3932 300.4928 0002014 282.6497 197.9374 15.20932499112713
2022-096B               
1 53371U 22096B   24226.86344115  .00168087  00000+0  13723-2 0  9993
2 53371  97.3813 145.4323 0006145 110.7406 249.4515 15.70053338113076
2022-096C               
1 53372U 22096C   24226.84745989  .00141665  00000+0  13175-2 0  9990
2 53372  97.3791 144.5836 0006162 112.3089 247.8826 15.66932700113009
KAI-1 (RS26S)           
1 53378U 22096J   24226.39114901  .01595804  18807-2  17515-2 0  9998
2 53378  97.3915 149.7600 0008580 152.1833 207.9911 16.10131614113281
DONGPO 04               
1 53451U 22098H   24226.81075369  .00033121  00000+0  14478-2 0  9999
2 53451  97.5364 327.2829 0003802 248.8187 111.2643 15.22008872111251
DONGPO 02               
1 53452U 22098J   24226.84751895  .00027218  00000+0  12714-2 0  9999
2 53452  97.5244 326.2273 0004258 263.1820  96.8930 15.19770023111258
DONGPO 01               
1 53453U 22098K   24226.84814823  .00027474  00000+0  12927-2 0  9991
2 53453  97.5302 326.7251 0003847 267.0548  93.0246 15.19518280111252
STARLINK-4400           
1 53468U 22099D   24227.04704671  .00005049  00000+0  39782-3 0  9993
2 53468  97.6534 347.0457 0002284 265.1462  94.9501 15.01218880110301
STARLINK-4621           
1 53676U 22105AE  24227.18999904 -.00001435  00000+0 -10715-3 0  9994
2 53676  97.6566 107.1856 0003116  82.0410 278.1168 15.01241098107622
SHERPA-LTC2             
1 53754U 22107BG  24226.83888275  .00010950  00000+0  60927-3 0  9992
2 53754  53.2360 165.0376 0440793 159.7338 202.1756 14.57667102104014
CENTISPACE-1 S3         
1 53757U 22108A   24226.86369022  .00003834  00000+0  84174-3 0  9996
2 53757  53.5332 312.3351 0009874   4.6002 355.5061 14.59408987103282
CENTISPACE-1 S4         
1 53758U 22108B   24226.81802671  .00004727  00000+0  10219-2 0  9994
2 53758  53.5305 312.5561 0009014 350.4658   9.6144 14.59704718103272
BLUEWALKER 3            
1 53807U 22111AL  24226.87276867  .00014847  00000+0  56013-3 0  9998
2 53807  53.2345 287.6034 0006901 276.3126  83.7089 15.27259103107042
YUNHAI-1 03             
1 53877U 22115A   24226.87172870  .00001186  00000+0  44831-3 0  9995
2 53877  98.5241 223.5142 0001180 143.6501 216.4764 14.33105326 99231
SELFIESAT               
1 53951U 22057BC  24227.32020646  .00545534  00000+0  31917-2 0  9997
2 53951  97.5642   1.4293 0009100 275.7756  84.2472 15.76818638123877
CENTISPACE-1 S5         
1 54020U 22126A   24226.88232744  .00005428  00000+0  11596-2 0  9990
2 54020  54.9998  18.4796 0013453  10.2307 349.8957 14.60000181 98712
CENTISPACE-1 S6         
1 54021U 22126B   24226.86856765  .00004797  00000+0  10299-2 0  9991
2 54021  54.9999  18.4132 0015277  10.9173 349.2149 14.59965159 98701
OTB-3-GAZELLE           
1 54023U 22127A   24226.70734360  .00000979  00000+0  30996-3 0  9998
2 54023  98.3465 219.7462 0014480  60.7039 299.5596 14.42169974 97417
ASO-S                   
1 54029U 22129A   24226.88262913  .00001283  00000+0  33213-3 0  9999
2 54029  98.2704 231.0592 0014397   4.3813 355.7505 14.51444669 97872
HJ-2E                   
1 54035U 22132A   24226.86930898  .00027948  00000+0  11836-2 0  9994
2 54035  97.3858 232.2300 0015180  63.0841 297.1944 15.23023210102130
COSMOS 2561             
1 54109U 22137A   24227.67238361  .00029483  00000+0  55101-3 0  9997
2 54109  97.0153 302.9380 0009395 283.0129  77.0073 15.48651760102675
GONETS-M 23             
1 54150U 22139A   24226.86448157  .00000053  00000+0  31544-3 0  9998
2 54150  82.5038  46.0618 0020598 247.7449 112.1446 12.42871511 82123
GONETS-M 24             
1 54151U 22139B   24226.83845461  .00000076  00000+0  47523-3 0  9994
2 54151  82.4957  45.5955 0015616 258.6109 101.3217 12.42873462 82123
GONETS-M 25             
1 54152U 22139C   24226.82446668  .00000073  00000+0  45706-3 0  9998
2 54152  82.5021  45.9305 0019287 257.3535 102.5388 12.42898361 82124
SKIF-D                  
1 54153U 22139D   24226.13319703  .00000017  00000+0  00000+0 0  9994
2 54153  89.9851  96.7982 0007004  38.7824 321.3502  5.00427291 30430
MATS                    
1 54227U 22147A   24227.54610801  .00008693  00000+0  74182-3 0  9998
2 54227  97.6674 225.0330 0010039 300.5456  59.4775 14.97901993 96938
JILIN-1 GAOFEN 03D54    
1 54254U 22155D   24226.85569813  .00030240  00000+0  13916-2 0  9996
2 54254  97.5657 337.7626 0009673 244.8232 115.2000 15.20230466 96435
EOS-6 (OCEANSAT-3)      
1 54361U 22158A   24226.82601348  .00002038  00000+0  57247-3 0  9995
2 54361  98.3533 323.0830 0001684  80.9253 279.2130 14.46981442 90609
ANAND                   
1 54366U 22158F   24226.81288796  .00277371  00000+0  19865-2 0  9994
2 54366  97.4346 338.3209 0005991 229.5931 130.4810 15.72875137 96156
ASTROCAST-0304          
1 54367U 22158G   24226.84978789  .00033764  00000+0  94271-3 0  9997
2 54367  97.4416 330.3081 0007427 226.2591 133.8038 15.36623558 95603
ASTROCAST-0303          
1 54368U 22158H   24226.80835749  .00128666  00000+0  32301-2 0  9993
2 54368  97.4431 330.7711 0008093 269.4471  90.5847 15.39469276 95628
ASTROCAST-0302          
1 54369U 22158J   24226.81753391  .00031315  00000+0  88035-3 0  9997
2 54369  97.4446 330.5711 0005911 237.4714 122.5959 15.36435200 95610
ASTROCAST-0301          
1 54370U 22158K   24226.80114780  .00030706  00000+0  86026-3 0  9992
2 54370  97.4467 330.6982 0004560 238.8272 121.2525 15.36554175 95617
2022-167A               
1 54682U 22167A   24226.83870791  .00144772  00000+0  25000-2 0  9995
2 54682  97.5980  16.5214 0007732 279.8339  80.2039 15.50442312 93386
CAS-5A (FO-118)         
1 54684U 22167C   24226.87260966  .00061438  00000+0  18259-2 0  9993
2 54684  97.6104  13.2492 0009486 299.7086  60.3212 15.34498514 93139
DONGPO 09               
1 54685U 22167D   24226.86106041  .00021951  00000+0  11227-2 0  9990
2 54685  97.6220   9.4832 0002164 306.7381  53.3653 15.16658996 92858
DONGPO 08               
1 54686U 22167E   24226.83225849  .00020787  00000+0  10905-2 0  9994
2 54686  97.6163   8.9812 0010789 350.9851   9.1186 15.15726408 92844
2022-167F               
1 54687U 22167F   24226.87425280  .00034545  00000+0  16085-2 0  9992
2 54687  97.6014   8.7580 0007396 313.2969  46.7648 15.19813108 92873
DONGPO 10               
1 54689U 22167H   24226.87646595  .00021574  00000+0  11277-2 0  9994
2 54689  97.6246   9.6578 0010133 313.3560  46.6827 15.15852995 92859
2022-167M               
1 54693U 22167M   24226.84548065  .00225985  00000+0  28074-2 0  9994
2 54693  97.5991  18.7892 0009155 278.7592  81.2626 15.59188518 93462
JILIN-1 GAOFEN 03D48    
1 54695U 22167P   24226.82251295  .00021316  00000+0  11201-2 0  9996
2 54695  97.6178   9.2367 0011116 314.5336  45.4987 15.15659580 92857
STAR VIBE               
1 55009U 23001A   24226.79890072  .00018539  00000+0  83231-3 0  9998
2 55009  97.4195 283.6594 0008187   2.6160 357.5117 15.21194991 89268
BRO-8                   
1 55011U 23001C   24226.79314672  .00013697  00000+0  63339-3 0  9995
2 55011  97.4264 283.9795 0009427   3.5502 356.5799 15.20234136 89251
CONNECTA T1.2           
1 55012U 23001D   24227.16295525  .00022128  00000+0  91355-3 0  9991
2 55012  97.4271 285.7211 0009130 354.2138   5.8992 15.24003056 89398
BIRKELAND               
1 55015U 23001G   24226.82202480  .00013841  00000+0  58194-3 0  9990
2 55015  97.4280 285.8004 0008291 353.0704   7.0417 15.23494074 89372
ION SCV-008             
1 55051U 23001AU  24227.17764843  .00016316  00000+0  85440-3 0  9999
2 55051  97.6100 306.0059 0019464 198.7716 161.2801 15.15727646 89063
ION SCV-007             
1 55060U 23001BD  24227.43444528  .00002638  00000+0  38914-3 0  9999
2 55060  97.9944 289.6203 0012217 349.0367  11.0575 14.76110738 87096
TAUSAT-2                
1 55073U 23001BS  24227.16422488  .00068927  00000+0  19266-2 0  9995
2 55073  97.4200 290.2843 0009827 296.7301  63.2937 15.36387726 89720
FLOCK 4Y-23             
1 55080U 23001BZ  24227.14663587  .00033099  00000+0  10871-2 0  9993
2 55080  97.4222 289.3257 0010866 322.7284  37.3202 15.31445767 89660
